PROMETHEUS 2-1          
1 41854U 16067G   23250.66412759  .00009776  00000+0  65270-3 0  9995
2 41854  98.0773  44.3254 0015548 299.2647  60.7025 15.07147249372903
PROMETHEUS 2-3          
1 41855U 16067H   23250.85736863  .00011056  00000+0  73808-3 0  9992
2 41855  98.0695  44.3017 0013319 308.7390  51.2645 15.07139591372936
INS-1B                  
1 41954U 17008G   23251.12035107  .00248076  00000+0  15026-2 0  9993
2 41954  97.1849 313.5386 0001356 156.0573 204.0756 15.76866298365853
DIDO-2                  
1 42000U 17008BE  23251.12976762  .00032092  00000+0  71656-3 0  9998
2 42000  97.1935 306.0488 0006870  98.5458 261.6569 15.43452246364713
PEASSS                  
1 42015U 17008BV  23250.80637866  .00101205  00000+0  11144-2 0  9995
2 42015  97.1958 315.0861 0002876  99.5368 260.6216 15.62801771365713
UCLSAT                  
1 42765U 17036A   23250.66383003  .00114844  00000+0  12409-2 0  9991
2 42765  97.1315 289.6504 0006889 138.6522 221.5260 15.63220614346713
AALTO-1                 
1 42775U 17036L   23251.07302288  .00025101  00000+0  65417-3 0  9999
2 42775  97.1474 278.8803 0010275 154.0431 206.1332 15.38788473345258
URSA MAIOR              
1 42776U 17036M   23250.30213613  .00029408  00000+0  70533-3 0  9997
2 42776  97.1482 279.7445 0010133 152.4748 207.7038 15.41291919345221
DIAMOND RED             
1 42783U 17036U   23250.54635635  .00032732  00000+0  68438-3 0  9998
2 42783  97.1449 283.6948 0008537 151.1041 209.0683 15.45379013345497
PEGASUS                 
1 42784U 17036V   23250.40358667  .00068934  00000+0  10048-2 0  9997
2 42784  97.1397 287.2299 0007896 140.6001 219.5829 15.55444002345721
DIAMOND GREEN           
1 42785U 17036W   23250.54263873  .00036461  00000+0  72053-3 0  9992
2 42785  97.1433 284.0436 0008340 150.4243 209.7480 15.47009474345582
DIAMOND BLUE            
1 42786U 17036X   23251.05049551  .00039948  00000+0  80932-3 0  9993
2 42786  97.1440 284.4228 0008461 148.0190 212.1575 15.46264103345575
SUCHAI                  
1 42788U 17036Z   23250.89979617  .00287005  00000+0  15445-2 0  9996
2 42788  97.1292 293.3265 0006377 153.5576 206.6018 15.79408362346243
SKCUBE                  
1 42789U 17036AA  23251.11768062  .00132513  00000+0  13535-2 0  9994
2 42789  97.1335 290.8767 0007511 138.5680 221.6151 15.64594438346026
ROBUSTA 1B              
1 42792U 17036AD  23251.11235725  .00218362  00000+0  15402-2 0  9995
2 42792  97.1306 292.7721 0006206 144.9478 215.2197 15.73402570346164
CICERO 6                
1 42793U 17036AE  23251.07856916  .00034219  00000+0  77612-3 0  9991
2 42793  97.1432 284.0884 0007910 149.3858 210.7854 15.42963297345661
CORVUS BC2              
1 42846U 17042X   23250.79157980  .00002293  00000+0  21354-3 0  9999
2 42846  97.3832  87.1490 0007580 300.7216  59.3259 14.95169509335065
CORVUS BC1              
1 42847U 17042Y   23250.77764207  .00002858  00000+0  26435-3 0  9996
2 42847  97.3830  87.4993 0007019 300.3693  59.6835 14.95266300335078
MIRATA                  
1 43015U 17073C   23250.60883589  .00013808  00000+0  83221-3 0  9998
2 43015  97.6206 136.0458 0205789 139.0869 222.6004 14.94809947313793
MAKERSAT 0              
1 43016U 17073D   23250.89704086  .00010232  00000+0  66929-3 0  9998
2 43016  97.6187 133.8525 0222123 149.3857 212.0545 14.89852322313628
CORVUS BC3              
1 43118U 18004H   23251.10505285  .00035164  00000+0  81442-3 0  9999
2 43118  97.3192 325.5393 0006766 193.6196 166.4870 15.42340618314802
CICERO 7                
1 43143U 18004AJ  23250.24316279  .00105023  00000+0  97313-3 0  9990
2 43143  97.3209 339.6176 0003556 187.8115 172.3091 15.67155851315558
GOMX-4B                 
1 43196U 18015E   23250.97934643  .00021710  00000+0  55835-3 0  9994
2 43196  97.5879  44.5489 0012559 268.3622  91.6185 15.39205537311673
GOMX-4A                 
1 43197U 18015F   23251.05373571  .00027694  00000+0  62618-3 0  9996
2 43197  97.5874  47.1789 0011861 260.8504  99.1402 15.43062469311868
CUBEBEL-1 (BSUSAT-1)    
1 43666U 18083E   23251.12921081  .00051118  00000+0  11129-2 0  9993
2 43666  97.3745 283.5321 0009449 166.7988 193.3509 15.44081607269976
CICERO 10               
1 43690U 18088A   23250.40613449  .00026586  00000+0  66740-3 0  9992
2 43690  85.0320  16.8018 0008669 282.8277  77.2006 15.39828656268136
PROXIMA I               
1 43694U 18088E   23250.78157083  .00038929  00000+0  86264-3 0  9991
2 43694  85.0253  11.8515 0010931 240.8650 119.1511 15.43533160268502
PROXIMA II              
1 43696U 18088G   23250.34941631  .00035923  00000+0  80162-3 0  9997
2 43696  85.0254  12.2123 0010985 242.2736 117.7404 15.43332012268424
SIRION PATHFINDER-2     
1 43759U 18099B   23251.09398900  .00003521  00000+0  29241-3 0  9997
2 43759  97.5632 310.4129 0013612 194.9091 165.1732 14.99316064260048
CORVUS BC4              
1 43767U 18099K   23251.08789404  .00003957  00000+0  33263-3 0  9990
2 43767  97.5581 308.2333 0010890 199.6134 160.4672 14.98801248259947
MOVE-II                 
1 43780U 18099Y   23251.10295850  .00012133  00000+0  84810-3 0  9995
2 43780  97.5649 313.4399 0007588 219.7521 140.3151 15.05431966260206
SPACEBEE-7              
1 43816U 18099BL  23251.09346594  .00009020  00000+0  65881-3 0  9993
2 43816  97.5910 314.3528 0012334 167.7360 192.4168 15.03825279259766
SPACEBEE-5              
1 43817U 18099BM  23250.42959474  .00047114  00000+0  19491-2 0  9998
2 43817  97.5844 323.0228 0004995 162.8175 197.3232 15.23789475260195
SPACEBEE-6              
1 43818U 18099BN  23250.63270916  .00014128  00000+0  91601-3 0  9992
2 43818  97.5825 316.3417 0011892 184.6524 175.4596 15.08153264259983
SHIELDS 1               
1 43850U 18104B   23251.12484048  .00008855  00000+0  30381-3 0  9991
2 43850  85.0241 113.9734 0014747  55.4421 304.8214 15.29884932262782
STF-1                   
1 43852U 18104D   23251.06389866  .00052772  00000+0  95560-3 0  9995
2 43852  85.0193 110.2967 0010827  52.0475 308.1758 15.49376730263207
ZACUBE-2                
1 43907U 18111AH  23251.08953658  .00040172  00000+0  83661-3 0  9992
2 43907  97.1233 128.9455 0010351 271.2721  88.7343 15.45436279261936
LUME 1                  
1 43908U 18111AJ  23250.86755154  .00052134  00000+0  83056-3 0  9998
2 43908  97.1223 133.2138 0007661 249.6530 110.3901 15.53065857262190
MOVE-IIB                
1 44398U 19038N   23250.90832897  .00108237  00000+0  18056-2 0  9999
2 44398  97.6637 238.3144 0009365  24.6468 335.5229 15.51538937231446
SONATE                  
1 44400U 19038Q   23250.40487371  .00013202  00000+0  55997-3 0  9994
2 44400  97.6914 229.8770 0020996  31.9080 328.3422 15.23046514230743
LUCKY-7                 
1 44406U 19038W   23250.90923600  .00019895  00000+0  75889-3 0  9991
2 44406  97.6876 232.0333 0018913  25.2468 334.9690 15.26547221230934
BEESAT 9                
1 44412U 19038AC  23250.37822273  .00035667  00000+0  10694-2 0  9990
2 44412  97.6799 233.9966 0014759  27.7285 332.4741 15.34292475230741
JAISAT-1                
1 44419U 19038F   23250.44316381  .00035250  00000+0  10488-2 0  9992
2 44419  97.6795 235.1783 0013902  24.6763 335.5142 15.34550237231137
DUCHIFAT-3              
1 44854U 19089C   23250.56758728  .00008984  00000+0  58179-3 0  9993
2 44854  36.9621 318.4269 0008389 268.8564  91.1219 15.07671394205265
EYESAT-NANO             
1 44877U 19092E   23250.78684176  .00108776  00000+0  17131-2 0  9993
2 44877  97.4563  83.6842 0006199 198.7454 161.3571 15.53174150206879
M2 PATHFINDER           
1 45727U 20037E   23250.89494425  .00003614  00000+0  33913-3 0  9999
2 45727  97.7634  64.6394 0011701 355.6946   4.4172 14.94555577173598
NETSAT-4                
1 46504U 20068U   23250.64922791  .00006839  00000+0  43981-3 0  9990
2 46504  97.7673 197.3231 0008730 244.0534 115.9795 15.08704203161337
NETSAT-3                
1 46505U 20068V   23250.56075353  .00005966  00000+0  38675-3 0  9999
2 46505  97.7645 197.0099 0007850 255.3218 104.7140 15.08469834161329
NETSAT-1                
1 46506U 20068W   23250.62390271  .00005029  00000+0  33080-3 0  9991
2 46506  97.7658 196.9178 0006412 267.8477  92.2016 15.08021838161329
NETSAT-2                
1 46507U 20068X   23251.11539535  .00007702  00000+0  49584-3 0  9991
2 46507  97.7658 197.5166 0005449 274.4601  85.6004 15.08638765161355
SAI-1 NANOCONNECT-2     
1 47701U 21015C   23250.18309105  .00092306  00000+0  11379-2 0  9999
2 47701  97.3764 335.9214 0006221 268.2656  91.7888 15.59869932140889
WILDTRACKCUBE-SIMBA     
1 47941U 21022K   23251.10717415  .00009981  00000+0  55802-3 0  9990
2 47941  97.4859 146.6906 0020348  54.0578 306.2537 15.13504246135542
BEESAT-6                
1 47957U 21022AB  23250.68871610  .00025793  00000+0  11084-2 0  9999
2 47957  97.4816 149.0440 0017296  49.6190 310.6553 15.22513442135477
SMOG-1                  
1 47964U 21022AJ  23250.26239964  .00026946  00000+0  10943-2 0  9995
2 47964  97.4868 150.9242 0015236  39.1945 321.0393 15.24446572134565
BCCSAT-1                
1 48041U 21022AK  23250.68845452  .00021158  00000+0  93354-3 0  9991
2 48041  97.4867 149.9572 0013240  40.0206 320.2003 15.21713822134515
BEESAT-5                
1 48083U 21022AM  23250.70287978  .00029719  00000+0  12070-2 0  9999
2 48083  97.4724 149.3625 0016724  48.1718 312.0944 15.24401474134640
BEESAT-7                
1 48084U 21022AN  23250.65604715  .00027930  00000+0  11749-2 0  9991
2 48084  97.4814 149.1993 0016998  48.8475 311.4225 15.23225565134208
BEESAT-8                
1 48085U 21022AP  23250.69135936  .00011273  00000+0  55547-3 0  9998
2 48085  97.4882 148.2425 0018512  50.5260 309.7607 15.17966184134699
LEDSAT                  
1 49069U 21073D   23251.14959734  .00011762  00000+0  61766-3 0  9991
2 49069  97.4759 320.6756 0023313 189.8804 170.1973 15.15631146113466
SPORT                   
1 55129U 98067UW  23250.41096130  .00205883  00000+0  74258-3 0  9992
2 55129  51.6227 253.5459 0008158  53.6155 306.5601 15.87498635 39512
